OBJECT_NAME,OBJECT_ID,EPOCH,MEAN_MOTION,ECCENTRICITY,INCLINATION,RA_OF_ASC_NODE,ARG_OF_PERICENTER,MEAN_ANOMALY,EPHEMERIS_TYPE,CLASSIFICATION_TYPE,NORAD_CAT_ID,ELEMENT_SET_NO,REV_AT_EPOCH,BSTAR,MEAN_MOTION_DOT,MEAN_MOTION_DDOT
STARLINK-35966,2025-280A,2026-04-15T16:35:12.855264,14.98340149,0.00033729,70.0017,241.3484,266.4977,93.5796,0,U,66821,999,2161,0.00039388416,4.611e-05,0.0
STARLINK-35958,2025-280B,2026-04-15T18:59:23.711424,14.98335087,0.00030471,70.0016,240.8939,270.2296,89.8514,0,U,66822,999,2163,0.0002950564,3.43e-05,0.0
STARLINK-35957,2025-280C,2026-04-15T18:35:20.902272,14.98330549,0.00032314,70.0015,240.8349,268.7204,91.3585,0,U,66823,999,2163,0.00016429789,1.868e-05,0.0
STARLINK-35896,2025-280D,2026-04-16T01:47:56.929344,14.98344083,0.00011016,70.0075,240.2776,300.4349,59.6701,0,U,66824,999,2167,4.2906197e-05,4.19e-06,0.0
STARLINK-35476,2025-280E,2026-04-15T19:35:27.980448,14.98327646,0.00032775,70.0013,240.9821,268.9516,91.1268,0,U,66825,999,2162,0.00021343897,2.454e-05,0.0
STARLINK-35898,2025-280F,2026-04-15T18:23:19.436352,14.98333707,0.00033814,70.0016,240.8033,266.038,94.0392,0,U,66826,999,2163,0.00028727535,3.337e-05,0.0
STARLINK-35959,2025-280G,2026-04-16T01:35:56.092416,14.98346147,0.0002297,70.0074,240.2468,275.1832,84.9065,0,U,66827,999,2167,0.00027060462,3.139e-05,0.0
STARLINK-35982,2025-280H,2026-04-16T01:53:58.604928,14.98335522,0.00029762,70.0019,240.2922,271.9442,88.1376,0,U,66828,999,2167,0.0001931212,2.212e-05,0.0
STARLINK-36084,2025-280J,2026-04-15T18:47:21.876576,14.9833448,0.00034908,70.0013,240.8639,268.3742,91.7018,0,U,66829,999,2163,0.00021618746,2.488e-05,0.0
STARLINK-35881,2025-280K,2026-04-16T02:05:59.593920,14.98343484,0.00017338,70.0021,240.3218,278.5533,81.543,0,U,66830,999,2167,0.00032023839,3.731e-05,0.0
STARLINK-35788,2025-280L,2026-04-15T18:29:20.477760,14.98337893,0.00033731,70.0014,240.8202,266.6121,93.4652,0,U,66831,999,2163,0.00040425701,4.735e-05,0.0
STARLINK-35768,2025-280M,2026-04-16T01:41:57.313536,14.98338461,0.00024757,70.0028,240.2603,277.4388,82.649,0,U,66832,999,2167,0.00029469396,3.426e-05,0.0
STARLINK-35858,2025-280N,2026-04-15T17:17:14.434944,14.98337052,0.00033359,70.0016,241.0468,268.5303,91.5474,0,U,66833,999,2162,0.00027328102,3.17e-05,0.0
STARLINK-35840,2025-280P,2026-04-15T18:17:18.726720,14.98336724,0.00032544,70.0012,240.7885,262.4241,97.6548,0,U,66834,999,2163,0.00031967444,3.724e-05,0.0
STARLINK-35890,2025-280Q,2026-04-16T01:29:56.063616,14.9833622,0.00031191,70.0017,240.2328,268.6965,91.3836,0,U,66835,999,2167,0.00020098195,2.306e-05,0.0
STARLINK-35838,2025-280R,2026-04-16T07:30:25.796448,14.98336356,0.0003394,70.0014,239.5027,268.1865,91.8905,0,U,66836,999,2171,0.0003390948,3.956e-05,0.0
STARLINK-35729,2025-280S,2026-04-15T18:11:35.046528,14.98317213,0.00029558,70.0043,241.1754,266.3634,93.7187,0,U,66837,999,2162,-7.7547465e-05,-1.018e-05,0.0
STARLINK-35886,2025-280T,2026-04-15T18:35:34.410912,14.9832837,0.00032642,70.0013,240.8327,267.8679,92.2107,0,U,66838,999,2163,6.388979e-06,-1.7e-07,0.0
STARLINK-35717,2025-280U,2026-04-15T17:23:29.916384,14.98332809,0.00032214,70.0016,241.0606,265.8743,94.2048,0,U,66839,999,2162,0.00029069499,3.377e-05,0.0
STARLINK-35837,2025-280V,2026-04-16T01:48:12.594528,14.98347613,0.00030815,70.003,240.2753,274.3067,85.774,0,U,66840,999,2167,0.00029076592,3.38e-05,0.0
STARLINK-35715,2025-280W,2026-04-16T02:00:13.430592,14.98335072,0.0003243,70.0015,240.3066,268.1381,91.9407,0,U,66841,999,2167,0.00015788362,1.792e-05,0.0
STARLINK-35769,2025-280X,2026-04-15T18:23:34.372320,14.98333667,0.00033261,70.0013,240.8042,268.4173,91.6605,0,U,66842,999,2163,0.000305395,3.553e-05,0.0
STARLINK-35997,2025-280Y,2026-04-15T18:47:37.938336,14.98322425,0.00030653,70.001,240.8626,266.1793,93.9016,0,U,66843,999,2163,0.00035409554,4.134e-05,0.0
STARLINK-36073,2025-280Z,2026-04-16T01:36:11.056896,14.98334997,0.00023636,70.0017,240.2474,272.9839,87.105,0,U,66844,999,2164,0.00015676115,1.778e-05,0.0
STARLINK-36068,2025-280AA,2026-04-15T18:29:28.964832,14.98321267,0.00033177,70.0016,240.8173,281.0381,79.0404,0,U,66845,999,2163,-0.0011331317,-0.00013584,0.0
STARLINK-36055,2025-280AB,2026-04-15T19:29:38.977152,14.98311621,0.00031916,70.0013,240.9631,283.9704,76.11,0,U,66846,999,2164,-0.00033277882,-4.06e-05,0.0
STARLINK-36061,2025-280AC,2026-04-15T16:29:25.886688,14.98340481,0.00021121,70.0019,241.3301,269.356,90.7357,0,U,66847,999,2161,1.243382e-05,5.6e-07,0.0
STARLINK-36091,2025-281A,2026-04-15T09:13:44.120352,15.27585909,8.245e-05,43.0023,136.5808,282.1704,77.9055,0,U,66848,999,2047,0.00023997179,6.348e-05,0.0
STARLINK-36102,2025-281B,2026-04-15T18:23:51.128736,15.2763206,0.00010181,43.0041,134.2836,280.6555,79.4182,0,U,66849,999,2185,0.0010374953,0.00028443,0.0
STARLINK-36105,2025-281C,2026-04-16T02:09:06.071904,15.27589799,0.00016963,43.0009,132.4075,272.1316,87.9341,0,U,66850,999,2190,0.00030272009,8.08e-05,0.0
