STARLINK-35966          
1 66821U 25280A   26105.69112101  .00004611  00000+0  39388-3 0  9990
2 66821  70.0017 241.3484 0003372 266.4977  93.5796 14.98340149 21614
STARLINK-35958          
1 66822U 25280B   26105.79124666  .00003430  00000+0  29506-3 0  9990
2 66822  70.0016 240.8939 0003047 270.2296  89.8514 14.98335087 21632
STARLINK-35957          
1 66823U 25280C   26105.77454748  .00001868  00000+0  16430-3 0  9991
2 66823  70.0015 240.8349 0003231 268.7204  91.3585 14.98330549 21637
STARLINK-35896          
1 66824U 25280D   26106.07496446  .00000419  00000+0  42906-4 0  9996
2 66824  70.0075 240.2776 0001101 300.4349  59.6701 14.98344083 21679
STARLINK-35476          
1 66825U 25280E   26105.81629607  .00002454  00000+0  21344-3 0  9998
2 66825  70.0013 240.9821 0003277 268.9516  91.1268 14.98327646 21620
STARLINK-35898          
1 66826U 25280F   26105.76619718  .00003337  00000+0  28728-3 0  9999
2 66826  70.0016 240.8033 0003381 266.0380  94.0392 14.98333707 21638
STARLINK-35959          
1 66827U 25280G   26106.06662144  .00003139  00000+0  27060-3 0  9993
2 66827  70.0074 240.2468 0002297 275.1832  84.9065 14.98346147 21678
STARLINK-35982          
1 66828U 25280H   26106.07915052  .00002212  00000+0  19312-3 0  9996
2 66828  70.0019 240.2922 0002976 271.9442  88.1376 14.98335522 21674
STARLINK-36084          
1 66829U 25280J   26105.78289209  .00002488  00000+0  21619-3 0  9990
2 66829  70.0013 240.8639 0003490 268.3742  91.7018 14.98334480 21636
STARLINK-35881          
1 66830U 25280K   26106.08749530  .00003731  00000+0  32024-3 0  9998
2 66830  70.0021 240.3218 0001733 278.5533  81.5430 14.98343484 21677
STARLINK-35788          
1 66831U 25280L   26105.77037590  .00004735  00000+0  40426-3 0  9990
2 66831  70.0014 240.8202 0003373 266.6121  93.4652 14.98337893 21632
STARLINK-35768          
1 66832U 25280M   26106.07080224  .00003426  00000+0  29469-3 0  9997
2 66832  70.0028 240.2603 0002475 277.4388  82.6490 14.98338461 21670
STARLINK-35858          
1 66833U 25280N   26105.72030596  .00003170  00000+0  27328-3 0  9994
2 66833  70.0016 241.0468 0003335 268.5303  91.5474 14.98337052 21621
STARLINK-35840          
1 66834U 25280P   26105.76202230  .00003724  00000+0  31967-3 0  9994
2 66834  70.0012 240.7885 0003254 262.4241  97.6548 14.98336724 21636
STARLINK-35890          
1 66835U 25280Q   26106.06245444  .00002306  00000+0  20098-3 0  9991
2 66835  70.0017 240.2328 0003119 268.6965  91.3836 14.98336220 21676
STARLINK-35838          
1 66836U 25280R   26106.31279857  .00003956  00000+0  33909-3 0  9992
2 66836  70.0014 239.5027 0003394 268.1865  91.8905 14.98336356 21717
STARLINK-35729          
1 66837U 25280S   26105.75804452 -.00001018  00000+0 -77547-4 0  9991
2 66837  70.0043 241.1754 0002955 266.3634  93.7187 14.98317213 21626
STARLINK-35886          
1 66838U 25280T   26105.77470383 -.00000017  00000+0  63890-5 0  9990
2 66838  70.0013 240.8327 0003264 267.8679  92.2107 14.98328370 21638
STARLINK-35717          
1 66839U 25280U   26105.72465181  .00003377  00000+0  29069-3 0  9995
2 66839  70.0016 241.0606 0003221 265.8743  94.2048 14.98332809 21625
STARLINK-35837          
1 66840U 25280V   26106.07514577  .00003380  00000+0  29077-3 0  9993
2 66840  70.0030 240.2753 0003081 274.3067  85.7740 14.98347613 21673
STARLINK-35715          
1 66841U 25280W   26106.08348878  .00001792  00000+0  15788-3 0  9993
2 66841  70.0015 240.3066 0003243 268.1381  91.9407 14.98335072 21670
STARLINK-35769          
1 66842U 25280X   26105.76637005  .00003553  00000+0  30540-3 0  9991
2 66842  70.0013 240.8042 0003326 268.4173  91.6605 14.98333667 21633
STARLINK-35997          
1 66843U 25280Y   26105.78307799  .00004134  00000+0  35410-3 0  9995
2 66843  70.0010 240.8626 0003065 266.1793  93.9016 14.98322425 21633
STARLINK-36073          
1 66844U 25280Z   26106.06679464  .00001778  00000+0  15676-3 0  9992
2 66844  70.0017 240.2474 0002363 272.9839  87.1050 14.98334997 21643
STARLINK-36068          
1 66845U 25280AA  26105.77047413 -.00013584  00000+0 -11331-2 0  9996
2 66845  70.0016 240.8173 0003317 281.0381  79.0404 14.98321267 21636
STARLINK-36055          
1 66846U 25280AB  26105.81225668 -.00004060  00000+0 -33278-3 0  9996
2 66846  70.0013 240.9631 0003191 283.9704  76.1100 14.98311621 21649
STARLINK-36061          
1 66847U 25280AC  26105.68710517  .00000056  00000+0  12434-4 0  9995
2 66847  70.0019 241.3301 0002112 269.3560  90.7357 14.98340481 21614
STARLINK-36091          
1 66848U 25281A   26105.38453843  .00006348  00000+0  23997-3 0  9995
2 66848  43.0023 136.5808 0000824 282.1704  77.9055 15.27585909 20472
STARLINK-36102          
1 66849U 25281B   26105.76656399  .00028443  00000+0  10375-2 0  9994
2 66849  43.0041 134.2836 0001018 280.6555  79.4182 15.27632060 21854
STARLINK-36105          
1 66850U 25281C   26106.08965361  .00008080  00000+0  30272-3 0  9998
2 66850  43.0009 132.4075 0001696 272.1316  87.9341 15.27589799 21905
